[{"OBJECT_NAME":"STARLINK-36334","OBJECT_ID":"2026-008AC","EPOCH":"2026-03-09T09:38:53.657088","MEAN_MOTION":15.27631199,"ECCENTRICITY":0.00046191,"INCLINATION":43.0015,"RA_OF_ASC_NODE":207.2306,"ARG_OF_PERICENTER":300.6201,"MEAN_ANOMALY":59.4195,"EPHEMERIS_TYPE":0,"CLASSIFICATION_TYPE":"U","NORAD_CAT_ID":67471,"ELEMENT_SET_NO":999,"REV_AT_EPOCH":952,"BSTAR":0.0015508272,"MEAN_MOTION_DOT":0.00042737,"MEAN_MOTION_DDOT":0},{"OBJECT_NAME":"OBJECT F","OBJECT_ID":"2026-023F","EPOCH":"2026-03-09T17:11:01.401216","MEAN_MOTION":15.23264948,"ECCENTRICITY":0.00223432,"INCLINATION":96.6318,"RA_OF_ASC_NODE":144.1544,"ARG_OF_PERICENTER":121.6413,"MEAN_ANOMALY":238.701,"EPHEMERIS_TYPE":0,"CLASSIFICATION_TYPE":"U","NORAD_CAT_ID":67679,"ELEMENT_SET_NO":999,"REV_AT_EPOCH":484,"BSTAR":0.00053756888,"MEAN_MOTION_DOT":0.00012778,"MEAN_MOTION_DDOT":0}]
